ATLAS CENTAUR 2         
1 00694U 63047A   26029.30989046  .00001945  00000+0  22810-3 0  9991
2 00694  30.3534  55.6959 0548192  93.2798 273.0636 14.11957085126057
THOR AGENA D R/B        
1 00733U 64002A   26030.00701401  .00000384  00000+0  15406-3 0  9992
2 00733  99.1227  41.2392 0033115  12.8637 347.3383 14.33994639232757
SL-3 R/B                
1 00877U 64053B   26030.23137457  .00000478  00000+0  11692-3 0  9993
2 00877  65.0765  83.9856 0077705 304.4614  54.9160 14.61326419261179
SL-8 R/B                
1 02802U 67045B   26030.23653351  .00000357  00000+0  10624-3 0  9993
2 02802  74.0099  59.9016 0062857  76.1212 284.6928 14.45586424 83463
SL-8 R/B                
1 03230U 68040B   26030.10636805  .00004629  00000+0  34495-3 0  9994
2 03230  74.0312  32.5113 0025776 227.0442 132.8586 15.02950662 84214
OAO 2                   
1 03597U 68110A   26030.28767477  .00000431  00000+0  12120-3 0  9995
2 03597  34.9932 119.6248 0006077 252.5374 107.4652 14.47282370 13530
ISIS 1                  
1 03669U 69009A   26030.30406876  .00000470  00000+0  32556-3 0  9997
2 03669  88.4548 159.4912 1707845 166.6158 198.6839 11.30393998344190
SERT 2                  
1 04327U 70009A   26030.27362288  .00000018  00000+0  80995-4 0  9994
2 04327  99.2709 335.4798 0004031 263.8630 223.1324 13.58725585774676
SL-3 R/B                
1 05118U 71028B   26030.22295561  .00043608  00000+0  57250-3 0  9998
2 05118  81.2374  99.4345 0017850  68.8533 291.4624 15.58138750982673
ASTEX 1                 
1 05560U 71089A   26030.26539519  .00000808  00000+0  20574-3 0  9998
2 05560  92.7155 139.3264 0014552 207.4018 152.6422 14.50720554856738
SL-8 R/B                
1 05730U 71119B   26030.02514713  .00009981  00000+0  51845-3 0  9990
2 05730  73.8863 247.9327 0554989 222.4774 133.2166 14.36750929649933
OAO 3 (COPERNICUS)      
1 06153U 72065A   26030.04876478  .00000621  00000+0  13177-3 0  9990
2 06153  35.0046 157.4607 0006855 210.1668 316.7096 14.59961118840541
