CCSDS_OMM_VERS = 2.0
CREATION_DATE  = 
ORIGINATOR     = 

OBJECT_NAME    = ATLAS CENTAUR 2
OBJECT_ID      = 1963-047A
CENTER_NAME    = EARTH
REF_FRAME      = TEME
TIME_SYSTEM    = UTC
MEAN_ELEMENT_THEORY = SGP/SGP4

EPOCH          = 2026-01-29T07:26:14.535744
MEAN_MOTION    = 14.11957085
ECCENTRICITY   = .05481922
INCLINATION    = 30.3534
RA_OF_ASC_NODE = 55.6959
ARG_OF_PERICENTER = 93.2798
MEAN_ANOMALY   = 273.0636

EPHEMERIS_TYPE = 0
CLASSIFICATION_TYPE = U
NORAD_CAT_ID   = 694
ELEMENT_SET_NO = 999
REV_AT_EPOCH   = 12605
BSTAR          = .2280976E-3
MEAN_MOTION_DOT = .1945E-4
MEAN_MOTION_DDOT = 0

CCSDS_OMM_VERS = 2.0
CREATION_DATE  = 
ORIGINATOR     = 

OBJECT_NAME    = THOR AGENA D R/B
OBJECT_ID      = 1964-002A
CENTER_NAME    = EARTH
REF_FRAME      = TEME
TIME_SYSTEM    = UTC
MEAN_ELEMENT_THEORY = SGP/SGP4

EPOCH          = 2026-01-30T00:10:06.010464
MEAN_MOTION    = 14.33994639
ECCENTRICITY   = .00331152
INCLINATION    = 99.1227
RA_OF_ASC_NODE = 41.2392
ARG_OF_PERICENTER = 12.8637
MEAN_ANOMALY   = 347.3383

EPHEMERIS_TYPE = 0
CLASSIFICATION_TYPE = U
NORAD_CAT_ID   = 733
ELEMENT_SET_NO = 999
REV_AT_EPOCH   = 23275
BSTAR          = .15405697E-3
MEAN_MOTION_DOT = .384E-5
MEAN_MOTION_DDOT = 0

CCSDS_OMM_VERS = 2.0
CREATION_DATE  = 
ORIGINATOR     = 

OBJECT_NAME    = SL-3 R/B
OBJECT_ID      = 1964-053B
CENTER_NAME    = EARTH
REF_FRAME      = TEME
TIME_SYSTEM    = UTC
MEAN_ELEMENT_THEORY = SGP/SGP4

EPOCH          = 2026-01-30T05:33:10.762848
MEAN_MOTION    = 14.61326419
ECCENTRICITY   = .00777059
INCLINATION    = 65.0765
RA_OF_ASC_NODE = 83.9856
ARG_OF_PERICENTER = 304.4614
MEAN_ANOMALY   = 54.9160

EPHEMERIS_TYPE = 0
CLASSIFICATION_TYPE = U
NORAD_CAT_ID   = 877
ELEMENT_SET_NO = 999
REV_AT_EPOCH   = 26117
BSTAR          = .11692185E-3
MEAN_MOTION_DOT = .478E-5
MEAN_MOTION_DDOT = 0

CCSDS_OMM_VERS = 2.0
CREATION_DATE  = 
ORIGINATOR     = 

OBJECT_NAME    = SL-8 R/B
OBJECT_ID      = 1967-045B
CENTER_NAME    = EARTH
REF_FRAME      = TEME
TIME_SYSTEM    = UTC
MEAN_ELEMENT_THEORY = SGP/SGP4

EPOCH          = 2026-01-30T05:40:36.495264
MEAN_MOTION    = 14.45586424
ECCENTRICITY   = .00628572
INCLINATION    = 74.0099
RA_OF_ASC_NODE = 59.9016
ARG_OF_PERICENTER = 76.1212
MEAN_ANOMALY   = 284.6928

EPHEMERIS_TYPE = 0
CLASSIFICATION_TYPE = U
NORAD_CAT_ID   = 2802
ELEMENT_SET_NO = 999
REV_AT_EPOCH   = 8346
BSTAR          = .10623717E-3
MEAN_MOTION_DOT = .357E-5
MEAN_MOTION_DDOT = 0

CCSDS_OMM_VERS = 2.0
CREATION_DATE  = 
ORIGINATOR     = 

OBJECT_NAME    = SL-8 R/B
OBJECT_ID      = 1968-040B
CENTER_NAME    = EARTH
REF_FRAME      = TEME
TIME_SYSTEM    = UTC
MEAN_ELEMENT_THEORY = SGP/SGP4

EPOCH          = 2026-01-30T02:33:10.199520
MEAN_MOTION    = 15.02950662
ECCENTRICITY   = .00257766
INCLINATION    = 74.0312
RA_OF_ASC_NODE = 32.5113
ARG_OF_PERICENTER = 227.0442
MEAN_ANOMALY   = 132.8586

EPHEMERIS_TYPE = 0
CLASSIFICATION_TYPE = U
NORAD_CAT_ID   = 3230
ELEMENT_SET_NO = 999
REV_AT_EPOCH   = 8421
BSTAR          = .34495287E-3
MEAN_MOTION_DOT = .4629E-4
MEAN_MOTION_DDOT = 0

CCSDS_OMM_VERS = 2.0
CREATION_DATE  = 
ORIGINATOR     = 

OBJECT_NAME    = OAO 2
OBJECT_ID      = 1968-110A
CENTER_NAME    = EARTH
REF_FRAME      = TEME
TIME_SYSTEM    = UTC
MEAN_ELEMENT_THEORY = SGP/SGP4

EPOCH          = 2026-01-30T06:54:15.100128
MEAN_MOTION    = 14.47282370
ECCENTRICITY   = .00060772
INCLINATION    = 34.9932
RA_OF_ASC_NODE = 119.6248
ARG_OF_PERICENTER = 252.5374
MEAN_ANOMALY   = 107.4652

EPHEMERIS_TYPE = 0
CLASSIFICATION_TYPE = U
NORAD_CAT_ID   = 3597
ELEMENT_SET_NO = 999
REV_AT_EPOCH   = 1353
BSTAR          = .12119739E-3
MEAN_MOTION_DOT = .431E-5
MEAN_MOTION_DDOT = 0

CCSDS_OMM_VERS = 2.0
CREATION_DATE  = 
ORIGINATOR     = 

OBJECT_NAME    = ISIS 1
OBJECT_ID      = 1969-009A
CENTER_NAME    = EARTH
REF_FRAME      = TEME
TIME_SYSTEM    = UTC
MEAN_ELEMENT_THEORY = SGP/SGP4

EPOCH          = 2026-01-30T07:17:51.540864
MEAN_MOTION    = 11.30393998
ECCENTRICITY   = .1707845
INCLINATION    = 88.4548
RA_OF_ASC_NODE = 159.4912
ARG_OF_PERICENTER = 166.6158
MEAN_ANOMALY   = 198.6839

EPHEMERIS_TYPE = 0
CLASSIFICATION_TYPE = U
NORAD_CAT_ID   = 3669
ELEMENT_SET_NO = 999
REV_AT_EPOCH   = 34419
BSTAR          = .32555742E-3
MEAN_MOTION_DOT = .47E-5
MEAN_MOTION_DDOT = 0

CCSDS_OMM_VERS = 2.0
CREATION_DATE  = 
ORIGINATOR     = 

OBJECT_NAME    = SERT 2
OBJECT_ID      = 1970-009A
CENTER_NAME    = EARTH
REF_FRAME      = TEME
TIME_SYSTEM    = UTC
MEAN_ELEMENT_THEORY = SGP/SGP4

EPOCH          = 2026-01-30T06:34:01.016832
MEAN_MOTION    = 13.58725585
ECCENTRICITY   = .00040314
INCLINATION    = 99.2709
RA_OF_ASC_NODE = 335.4798
ARG_OF_PERICENTER = 263.8630
MEAN_ANOMALY   = 223.1324

EPHEMERIS_TYPE = 0
CLASSIFICATION_TYPE = U
NORAD_CAT_ID   = 4327
ELEMENT_SET_NO = 999
REV_AT_EPOCH   = 77467
BSTAR          = .80995203E-4
MEAN_MOTION_DOT = .18E-6
MEAN_MOTION_DDOT = 0

CCSDS_OMM_VERS = 2.0
CREATION_DATE  = 
ORIGINATOR     = 

OBJECT_NAME    = SL-3 R/B
OBJECT_ID      = 1971-028B
CENTER_NAME    = EARTH
REF_FRAME      = TEME
TIME_SYSTEM    = UTC
MEAN_ELEMENT_THEORY = SGP/SGP4

EPOCH          = 2026-01-30T05:21:03.364704
MEAN_MOTION    = 15.58138750
ECCENTRICITY   = .001785
INCLINATION    = 81.2374
RA_OF_ASC_NODE = 99.4345
ARG_OF_PERICENTER = 68.8533
MEAN_ANOMALY   = 291.4624

EPHEMERIS_TYPE = 0
CLASSIFICATION_TYPE = U
NORAD_CAT_ID   = 5118
ELEMENT_SET_NO = 999
REV_AT_EPOCH   = 98267
BSTAR          = .57249678E-3
MEAN_MOTION_DOT = .43608E-3
MEAN_MOTION_DDOT = 0

CCSDS_OMM_VERS = 2.0
CREATION_DATE  = 
ORIGINATOR     = 

OBJECT_NAME    = ASTEX 1
OBJECT_ID      = 1971-089A
CENTER_NAME    = EARTH
REF_FRAME      = TEME
TIME_SYSTEM    = UTC
MEAN_ELEMENT_THEORY = SGP/SGP4

EPOCH          = 2026-01-30T06:22:10.144416
MEAN_MOTION    = 14.50720554
ECCENTRICITY   = .00145526
INCLINATION    = 92.7155
RA_OF_ASC_NODE = 139.3264
ARG_OF_PERICENTER = 207.4018
MEAN_ANOMALY   = 152.6422

EPHEMERIS_TYPE = 0
CLASSIFICATION_TYPE = U
NORAD_CAT_ID   = 5560
ELEMENT_SET_NO = 999
REV_AT_EPOCH   = 85673
BSTAR          = .20573569E-3
MEAN_MOTION_DOT = .808E-5
MEAN_MOTION_DDOT = 0

CCSDS_OMM_VERS = 2.0
CREATION_DATE  = 
ORIGINATOR     = 

OBJECT_NAME    = SL-8 R/B
OBJECT_ID      = 1971-119B
CENTER_NAME    = EARTH
REF_FRAME      = TEME
TIME_SYSTEM    = UTC
MEAN_ELEMENT_THEORY = SGP/SGP4

EPOCH          = 2026-01-30T00:36:12.712032
MEAN_MOTION    = 14.36750929
ECCENTRICITY   = .05549897
INCLINATION    = 73.8863
RA_OF_ASC_NODE = 247.9327
ARG_OF_PERICENTER = 222.4774
MEAN_ANOMALY   = 133.2166

EPHEMERIS_TYPE = 0
CLASSIFICATION_TYPE = U
NORAD_CAT_ID   = 5730
ELEMENT_SET_NO = 999
REV_AT_EPOCH   = 64993
BSTAR          = .51844533E-3
MEAN_MOTION_DOT = .9981E-4
MEAN_MOTION_DDOT = 0

CCSDS_OMM_VERS = 2.0
CREATION_DATE  = 
ORIGINATOR     = 

OBJECT_NAME    = OAO 3 (COPERNICUS)
OBJECT_ID      = 1972-065A
CENTER_NAME    = EARTH
REF_FRAME      = TEME
TIME_SYSTEM    = UTC
MEAN_ELEMENT_THEORY = SGP/SGP4

EPOCH          = 2026-01-30T01:10:13.276992
MEAN_MOTION    = 14.59961118
ECCENTRICITY   = .00068551
INCLINATION    = 35.0046
RA_OF_ASC_NODE = 157.4607
ARG_OF_PERICENTER = 210.1668
MEAN_ANOMALY   = 316.7096

EPHEMERIS_TYPE = 0
CLASSIFICATION_TYPE = U
NORAD_CAT_ID   = 6153
ELEMENT_SET_NO = 999
REV_AT_EPOCH   = 84054
BSTAR          = .13176541E-3
MEAN_MOTION_DOT = .621E-5
MEAN_MOTION_DDOT = 0

